{
  "type": "FeatureCollection",
  "features": [
    {
      "type": "Feature",
      "geometry": {
        "type": "Point",
        "coordinates": [104.066541, 30.572269]
      },
      "properties": {
        "地名": "天府广场",
        "区划码": "510104"
      }
    },
    {
      "type": "Feature",
      "geometry": {
        "type": "LineString",
        "coordinates": [
          [104.04216, 30.65716],
          [104.07286, 30.6586],
          [104.10194, 30.65976]
        ]
      },
      "properties": {
        "地名": "成都中轴示意线",
        "区划码": "510100"
      }
    },
    {
      "type": "Feature",
      "geometry": {
        "type": "Polygon",
        "coordinates": [
          [
            [104.0398, 30.7052],
            [104.0895, 30.7052],
            [104.0895, 30.7368],
            [104.0398, 30.7368],
            [104.0398, 30.7052]
          ]
        ]
      },
      "properties": {
        "地名": "成都本地示例面",
        "区划码": "510108"
      }
    }
  ]
}
